[{"OBJECT_NAME":"COSMOS 2428","OBJECT_ID":"2007-029A","EPOCH":"2026-03-09T23:01:40.069056","MEAN_MOTION":14.1294624,"ECCENTRICITY":0.00091204,"INCLINATION":70.9433,"RA_OF_ASC_NODE":202.7763,"ARG_OF_PERICENTER":276.7113,"MEAN_ANOMALY":83.297,"EPHEMERIS_TYPE":0,"CLASSIFICATION_TYPE":"U","NORAD_CAT_ID":31792,"ELEMENT_SET_NO":999,"REV_AT_EPOCH":96413,"BSTAR":6.0875257e-5,"MEAN_MOTION_DOT":6.6e-7,"MEAN_MOTION_DDOT":0},{"OBJECT_NAME":"FENGYUN 1C DEB","OBJECT_ID":"1999-025MY","EPOCH":"2026-03-09T13:01:03.480960","MEAN_MOTION":14.12019667,"ECCENTRICITY":0.00466345,"INCLINATION":99.2943,"RA_OF_ASC_NODE":270.2433,"ARG_OF_PERICENTER":180.1251,"MEAN_ANOMALY":235.3409,"EPHEMERIS_TYPE":0,"CLASSIFICATION_TYPE":"U","NORAD_CAT_ID":30023,"ELEMENT_SET_NO":999,"REV_AT_EPOCH":98421,"BSTAR":0.00050553955,"MEAN_MOTION_DOT":8.88e-6,"MEAN_MOTION_DDOT":0}]
